[
    {
        "Altitude(m)": 611965.2292682197,
        "Argument of Periapsis(deg)": 0.0,
        "Eccentricity": 0.0,
        "Inclination(deg)": 60.0,
        "Latitude(deg)": 59.14029467378884,
        "Longitude(deg)": 58.969696424024896,
        "Mean Anomaly(deg)": 81.8182,
        "RAAN(deg)": 85.00000000000001,
        "Satellite Name": "Test1 379",
        "Satellite Number": 379,
        "Semi-Major Axis(m)": 6980739.136638005,
        "Time(s)": 0
    },
    {
        "Altitude(m)": 611995.8551203249,
        "Argument of Periapsis(deg)": 0.00010418945913296404,
        "Eccentricity": 0.0,
        "Inclination(deg)": 60.0,
        "Latitude(deg)": 59.28339607018258,
        "Longitude(deg)": 60.10306235195599,
        "Mean Anomaly(deg)": 82.43830614546185,
        "RAAN(deg)": 84.99957995086027,
        "Satellite Name": "Test1 379",
        "Satellite Number": 379,
        "Semi-Major Axis(m)": 6980739.136638005,
        "Time(s)": 10
    }
]